[{"OBJECT_NAME":"ONEWEB-0034","OBJECT_ID":"2020-020AG","EPOCH":"2025-08-09T14:32:20.551488","MEAN_MOTION":13.11416403,"ECCENTRICITY":0.0001751,"INCLINATION":87.8802,"RA_OF_ASC_NODE":83.149,"ARG_OF_PERICENTER":79.9594,"MEAN_ANOMALY":280.1731,"EPHEMERIS_TYPE":0,"CLASSIFICATION_TYPE":"U","NORAD_CAT_ID":45454,"ELEMENT_SET_NO":999,"REV_AT_EPOCH":26175,"BSTAR":0.0015932,"MEAN_MOTION_DOT":5.77e-6,"MEAN_MOTION_DDOT":0},{"OBJECT_NAME":"ONEWEB-0060","OBJECT_ID":"2020-020AH","EPOCH":"2025-08-09T13:50:50.322048","MEAN_MOTION":13.1141617,"ECCENTRICITY":0.0002871,"INCLINATION":87.8795,"RA_OF_ASC_NODE":83.1838,"ARG_OF_PERICENTER":73.3436,"MEAN_ANOMALY":286.8007,"EPHEMERIS_TYPE":0,"CLASSIFICATION_TYPE":"U","NORAD_CAT_ID":45455,"ELEMENT_SET_NO":999,"REV_AT_EPOCH":26170,"BSTAR":-0.0010495,"MEAN_MOTION_DOT":-3.59e-6,"MEAN_MOTION_DDOT":0},{"OBJECT_NAME":"ONEWEB-0086","OBJECT_ID":"2020-020AJ","EPOCH":"2025-08-09T13:20:19.580352","MEAN_MOTION":13.11414693,"ECCENTRICITY":0.000222,"INCLINATION":87.8797,"RA_OF_ASC_NODE":83.1565,"ARG_OF_PERICENTER":64.3523,"MEAN_ANOMALY":295.7834,"EPHEMERIS_TYPE":0,"CLASSIFICATION_TYPE":"U","NORAD_CAT_ID":45456,"ELEMENT_SET_NO":999,"REV_AT_EPOCH":26176,"BSTAR":-0.00096019,"MEAN_MOTION_DOT":-3.28e-6,"MEAN_MOTION_DDOT":0},{"OBJECT_NAME":"ONEWEB-0088","OBJECT_ID":"2020-020AK","EPOCH":"2025-08-09T14:38:26.416608","MEAN_MOTION":13.11415229,"ECCENTRICITY":0.000181,"INCLINATION":87.8796,"RA_OF_ASC_NODE":83.0924,"ARG_OF_PERICENTER":85.3997,"MEAN_ANOMALY":274.7338,"EPHEMERIS_TYPE":0,"CLASSIFICATION_TYPE":"U","NORAD_CAT_ID":45457,"ELEMENT_SET_NO":999,"REV_AT_EPOCH":26170,"BSTAR":0.0014865,"MEAN_MOTION_DOT":5.4e-6,"MEAN_MOTION_DDOT":0},{"OBJECT_NAME":"ONEWEB-0102","OBJECT_ID":"2020-100A","EPOCH":"2025-08-09T13:17:00.429216","MEAN_MOTION":13.12440827,"ECCENTRICITY":0.0001589,"INCLINATION":87.8849,"RA_OF_ASC_NODE":52.6293,"ARG_OF_PERICENTER":85.7636,"MEAN_ANOMALY":274.3674,"EPHEMERIS_TYPE":0,"CLASSIFICATION_TYPE":"U","NORAD_CAT_ID":47258,"ELEMENT_SET_NO":999,"REV_AT_EPOCH":22385,"BSTAR":-0.00093632,"MEAN_MOTION_DOT":-3.24e-6,"MEAN_MOTION_DDOT":0},{"OBJECT_NAME":"ONEWEB-0109","OBJECT_ID":"2020-100B","EPOCH":"2025-08-09T13:28:41.885760","MEAN_MOTION":13.12442718,"ECCENTRICITY":0.0001665,"INCLINATION":87.8848,"RA_OF_ASC_NODE":52.5977,"ARG_OF_PERICENTER":84.9836,"MEAN_ANOMALY":275.1483,"EPHEMERIS_TYPE":0,"CLASSIFICATION_TYPE":"U","NORAD_CAT_ID":47259,"ELEMENT_SET_NO":999,"REV_AT_EPOCH":22368,"BSTAR":-0.0011289,"MEAN_MOTION_DOT":-3.93e-6,"MEAN_MOTION_DDOT":0},{"OBJECT_NAME":"ONEWEB-0110","OBJECT_ID":"2020-100C","EPOCH":"2025-08-09T14:06:04.384800","MEAN_MOTION":13.12444271,"ECCENTRICITY":0.0001956,"INCLINATION":87.8854,"RA_OF_ASC_NODE":52.5758,"ARG_OF_PERICENTER":81.0333,"MEAN_ANOMALY":279.1016,"EPHEMERIS_TYPE":0,"CLASSIFICATION_TYPE":"U","NORAD_CAT_ID":47260,"ELEMENT_SET_NO":999,"REV_AT_EPOCH":22385,"BSTAR":0.00085842,"MEAN_MOTION_DOT":3.22e-6,"MEAN_MOTION_DDOT":0},{"OBJECT_NAME":"ONEWEB-0111","OBJECT_ID":"2020-100D","EPOCH":"2025-08-09T13:00:39.631968","MEAN_MOTION":13.1244189,"ECCENTRICITY":0.0001698,"INCLINATION":87.8855,"RA_OF_ASC_NODE":52.6006,"ARG_OF_PERICENTER":87.2098,"MEAN_ANOMALY":272.9225,"EPHEMERIS_TYPE":0,"CLASSIFICATION_TYPE":"U","NORAD_CAT_ID":47261,"ELEMENT_SET_NO":999,"REV_AT_EPOCH":22368,"BSTAR":-4.6856e-5,"MEAN_MOTION_DOT":-4.0e-8,"MEAN_MOTION_DDOT":0},{"OBJECT_NAME":"ONEWEB-0114","OBJECT_ID":"2020-100E","EPOCH":"2025-08-09T11:55:14.863584","MEAN_MOTION":13.1244271,"ECCENTRICITY":0.0001426,"INCLINATION":87.8841,"RA_OF_ASC_NODE":52.6067,"ARG_OF_PERICENTER":88.7461,"MEAN_ANOMALY":271.383,"EPHEMERIS_TYPE":0,"CLASSIFICATION_TYPE":"U","NORAD_CAT_ID":47262,"ELEMENT_SET_NO":999,"REV_AT_EPOCH":22363,"BSTAR":-0.00075325,"MEAN_MOTION_DOT":-2.58e-6,"MEAN_MOTION_DDOT":0},{"OBJECT_NAME":"ONEWEB-0117","OBJECT_ID":"2020-100F","EPOCH":"2025-08-09T13:33:21.220416","MEAN_MOTION":13.12443166,"ECCENTRICITY":0.0001789,"INCLINATION":87.8856,"RA_OF_ASC_NODE":52.5877,"ARG_OF_PERICENTER":87.7335,"MEAN_ANOMALY":272.3999,"EPHEMERIS_TYPE":0,"CLASSIFICATION_TYPE":"U","NORAD_CAT_ID":47263,"ELEMENT_SET_NO":999,"REV_AT_EPOCH":22365,"BSTAR":-0.0014015,"MEAN_MOTION_DOT":-4.91e-6,"MEAN_MOTION_DDOT":0},{"OBJECT_NAME":"ONEWEB-0118","OBJECT_ID":"2020-100G","EPOCH":"2025-08-09T12:30:18.603360","MEAN_MOTION":13.12443466,"ECCENTRICITY":0.000156,"INCLINATION":87.8855,"RA_OF_ASC_NODE":52.5969,"ARG_OF_PERICENTER":98.2899,"MEAN_ANOMALY":261.8406,"EPHEMERIS_TYPE":0,"CLASSIFICATION_TYPE":"U","NORAD_CAT_ID":47264,"ELEMENT_SET_NO":999,"REV_AT_EPOCH":22384,"BSTAR":0.001109,"MEAN_MOTION_DOT":4.12e-6,"MEAN_MOTION_DDOT":0},{"OBJECT_NAME":"ONEWEB-0119","OBJECT_ID":"2020-100H","EPOCH":"2025-08-09T13:10:00.723072","MEAN_MOTION":13.12440831,"ECCENTRICITY":0.0001736,"INCLINATION":87.885,"RA_OF_ASC_NODE":52.63,"ARG_OF_PERICENTER":86.4108,"MEAN_ANOMALY":273.7219,"EPHEMERIS_TYPE":0,"CLASSIFICATION_TYPE":"U","NORAD_CAT_ID":47265,"ELEMENT_SET_NO":999,"REV_AT_EPOCH":22382,"BSTAR":-0.00082834,"MEAN_MOTION_DOT":-2.85e-6,"MEAN_MOTION_DDOT":0},{"OBJECT_NAME":"ONEWEB-0120","OBJECT_ID":"2020-100J","EPOCH":"2025-08-09T13:42:53.591040","MEAN_MOTION":13.12441798,"ECCENTRICITY":0.0001627,"INCLINATION":87.8863,"RA_OF_ASC_NODE":52.6238,"ARG_OF_PERICENTER":87.6956,"MEAN_ANOMALY":272.4359,"EPHEMERIS_TYPE":0,"CLASSIFICATION_TYPE":"U","NORAD_CAT_ID":47266,"ELEMENT_SET_NO":999,"REV_AT_EPOCH":22385,"BSTAR":-0.00063677,"MEAN_MOTION_DOT":-2.16e-6,"MEAN_MOTION_DDOT":0},{"OBJECT_NAME":"ONEWEB-0121","OBJECT_ID":"2020-100K","EPOCH":"2025-08-09T13:26:22.278912","MEAN_MOTION":13.12443642,"ECCENTRICITY":0.0001825,"INCLINATION":87.8852,"RA_OF_ASC_NODE":52.5947,"ARG_OF_PERICENTER":85.7069,"MEAN_ANOMALY":274.4268,"EPHEMERIS_TYPE":0,"CLASSIFICATION_TYPE":"U","NORAD_CAT_ID":47267,"ELEMENT_SET_NO":999,"REV_AT_EPOCH":22376,"BSTAR":-0.0010596,"MEAN_MOTION_DOT":-3.68e-6,"MEAN_MOTION_DDOT":0},{"OBJECT_NAME":"ONEWEB-0122","OBJECT_ID":"2020-100L","EPOCH":"2025-08-09T13:19:08.602752","MEAN_MOTION":13.12441808,"ECCENTRICITY":0.0001696,"INCLINATION":87.8848,"RA_OF_ASC_NODE":52.5992,"ARG_OF_PERICENTER":83.2638,"MEAN_ANOMALY":276.8684,"EPHEMERIS_TYPE":0,"CLASSIFICATION_TYPE":"U","NORAD_CAT_ID":47268,"ELEMENT_SET_NO":999,"REV_AT_EPOCH":22367,"BSTAR":-0.0013265,"MEAN_MOTION_DOT":-4.64e-6,"MEAN_MOTION_DDOT":0},{"OBJECT_NAME":"ONEWEB-0123","OBJECT_ID":"2020-100M","EPOCH":"2025-08-09T13:12:21.589632","MEAN_MOTION":13.12447157,"ECCENTRICITY":0.0001721,"INCLINATION":87.8847,"RA_OF_ASC_NODE":52.6278,"ARG_OF_PERICENTER":92.4432,"MEAN_ANOMALY":267.6893,"EPHEMERIS_TYPE":0,"CLASSIFICATION_TYPE":"U","NORAD_CAT_ID":47269,"ELEMENT_SET_NO":999,"REV_AT_EPOCH":22381,"BSTAR":-0.00093352,"MEAN_MOTION_DOT":-3.23e-6,"MEAN_MOTION_DDOT":0},{"OBJECT_NAME":"ONEWEB-0124","OBJECT_ID":"2020-100N","EPOCH":"2025-08-09T12:55:59.718432","MEAN_MOTION":13.12441443,"ECCENTRICITY":0.0001945,"INCLINATION":87.8859,"RA_OF_ASC_NODE":52.6301,"ARG_OF_PERICENTER":88.5885,"MEAN_ANOMALY":271.5467,"EPHEMERIS_TYPE":0,"CLASSIFICATION_TYPE":"U","NORAD_CAT_ID":47270,"ELEMENT_SET_NO":999,"REV_AT_EPOCH":22369,"BSTAR":0.0001736,"MEAN_MOTION_DOT":7.5e-7,"MEAN_MOTION_DDOT":0}]
