ONEWEB-0034             
1 45454U 20020AG  25221.60579342  .00000577  00000+0  15932-2 0  9994
2 45454  87.8802  83.1490 0001751  79.9594 280.1731 13.11416403261756
ONEWEB-0060             
1 45455U 20020AH  25221.57697132 -.00000359  00000+0 -10495-2 0  9998
2 45455  87.8795  83.1838 0002871  73.3436 286.8007 13.11416170261706
ONEWEB-0086             
1 45456U 20020AJ  25221.55578218 -.00000328  00000+0 -96019-3 0  9993
2 45456  87.8797  83.1565 0002220  64.3523 295.7834 13.11414693261762
ONEWEB-0088             
1 45457U 20020AK  25221.61002797  .00000540  00000+0  14865-2 0  9997
2 45457  87.8796  83.0924 0001810  85.3997 274.7338 13.11415229261708
ONEWEB-0102             
1 47258U 20100A   25221.55347719 -.00000324  00000+0 -93632-3 0  9998
2 47258  87.8849  52.6293 0001589  85.7636 274.3674 13.12440827223852
ONEWEB-0109             
1 47259U 20100B   25221.56159590 -.00000393  00000+0 -11289-2 0  9991
2 47259  87.8848  52.5977 0001665  84.9836 275.1483 13.12442718223687
ONEWEB-0110             
1 47260U 20100C   25221.58755075  .00000322  00000+0  85842-3 0  9992
2 47260  87.8854  52.5758 0001956  81.0333 279.1016 13.12444271223857
ONEWEB-0111             
1 47261U 20100D   25221.54212537 -.00000004  00000+0 -46856-4 0  9992
2 47261  87.8855  52.6006 0001698  87.2098 272.9225 13.12441890223683
ONEWEB-0114             
1 47262U 20100E   25221.49669981 -.00000258  00000+0 -75325-3 0  9999
2 47262  87.8841  52.6067 0001426  88.7461 271.3830 13.12442710223637
ONEWEB-0117             
1 47263U 20100F   25221.56482894 -.00000491  00000+0 -14015-2 0  9991
2 47263  87.8856  52.5877 0001789  87.7335 272.3999 13.12443166223658
ONEWEB-0118             
1 47264U 20100G   25221.52104865  .00000412  00000+0  11090-2 0  9998
2 47264  87.8855  52.5969 0001560  98.2899 261.8406 13.12443466223849
ONEWEB-0119             
1 47265U 20100H   25221.54861948 -.00000285  00000+0 -82834-3 0  9998
2 47265  87.8850  52.6300 0001736  86.4108 273.7219 13.12440831223827
ONEWEB-0120             
1 47266U 20100J   25221.57145360 -.00000216  00000+0 -63677-3 0  9993
2 47266  87.8863  52.6238 0001627  87.6956 272.4359 13.12441798223852
ONEWEB-0121             
1 47267U 20100K   25221.55998008 -.00000368  00000+0 -10596-2 0  9996
2 47267  87.8852  52.5947 0001825  85.7069 274.4268 13.12443642223762
ONEWEB-0122             
1 47268U 20100L   25221.55496068 -.00000464  00000+0 -13265-2 0  9999
2 47268  87.8848  52.5992 0001696  83.2638 276.8684 13.12441808223679
ONEWEB-0123             
1 47269U 20100M   25221.55024988 -.00000323  00000+0 -93352-3 0  9998
2 47269  87.8847  52.6278 0001721  92.4432 267.6893 13.12447157223819
ONEWEB-0124             
1 47270U 20100N   25221.53888563  .00000075  00000+0  17360-3 0  9992
2 47270  87.8859  52.6301 0001945  88.5885 271.5467 13.12441443223696
